[{"OBJECT_NAME":"ATHENA EPIC","OBJECT_ID":"2025-154C","EPOCH":"2026-03-09T17:44:05.751744","MEAN_MOTION":14.93726693,"ECCENTRICITY":0.00058305,"INCLINATION":97.6779,"RA_OF_ASC_NODE":134.8687,"ARG_OF_PERICENTER":203.8388,"MEAN_ANOMALY":156.2563,"EPHEMERIS_TYPE":0,"CLASSIFICATION_TYPE":"U","NORAD_CAT_ID":64871,"ELEMENT_SET_NO":999,"REV_AT_EPOCH":3416,"BSTAR":0.00033901039,"MEAN_MOTION_DOT":3.534e-5,"MEAN_MOTION_DDOT":0},{"OBJECT_NAME":"OV1-10 R\/B","OBJECT_ID":"1966-111C","EPOCH":"2026-03-09T17:10:30.494208","MEAN_MOTION":14.85448079,"ECCENTRICITY":0.00582808,"INCLINATION":93.4003,"RA_OF_ASC_NODE":162.682,"ARG_OF_PERICENTER":65.7943,"MEAN_ANOMALY":294.9357,"EPHEMERIS_TYPE":0,"CLASSIFICATION_TYPE":"U","NORAD_CAT_ID":2621,"ELEMENT_SET_NO":999,"REV_AT_EPOCH":15959,"BSTAR":0.00014045213,"MEAN_MOTION_DOT":1.241e-5,"MEAN_MOTION_DDOT":0}]
